{"type":"FeatureCollection","features":[{"type":"Feature","geometry":{"type":"Point","coordinates":[-58.370105,-34.734808]},"properties":{"label":"Boulevard De Los Italianos 2852 - Boulevard De Los Italianos 2852, Monte Chingolo, Buenos Aires Province, B1825, Argentina"}},{"type":"Feature","properties":{},"geometry":{"type":"LineString","coordinates":[[-58.369682,-34.734426],[-58.369682,-34.734426]]}},{"type":"Feature","properties":{},"geometry":{"type":"LineString","coordinates":[[-58.369649,-34.734399],[-58.369733,-34.734471],[-58.369855,-34.734568],[-58.369927,-34.734655],[-58.370078,-34.734762],[-58.370238,-34.734935],[-58.370381,-34.735066],[-58.370554,-34.735204],[-58.370718,-34.735329],[-58.370832,-34.735447],[-58.370962,-34.735523],[-58.371057,-34.735631],[-58.371148,-34.735724],[-58.371258,-34.735833],[-58.371342,-34.735886],[-58.371414,-34.735967],[-58.371501,-34.736039],[-58.371603,-34.736132],[-58.371675,-34.736191],[-58.371736,-34.736222],[-58.371876,-34.736356],[-58.371965,-34.736444],[-58.372025,-34.736534],[-58.372112,-34.736587],[-58.372279,-34.736733],[-58.372363,-34.736786],[-58.372412,-34.736858],[-58.372472,-34.736898],[-58.37259,-34.736992],[-58.372654,-34.737057],[-58.372764,-34.737157],[-58.372825,-34.737216],[-58.372916,-34.737269],[-58.372957,-34.737331],[-58.373079,-34.737425],[-58.373128,-34.737465],[-58.373196,-34.737552],[-58.373264,-34.737605],[-58.373302,-34.737618]]}}]}